[{"spaceTrack":{"CCSDS_OMM_VERS":"2.0","COMMENT":"GENERATED VIA SPACE-TRACK.ORG API","CREATION_DATE":"2021-05-12T14:26:11","ORIGINATOR":"18 SPCS","OBJECT_NAME":"STARLINK-1350","OBJECT_ID":"2020-025E","CENTER_NAME":"EARTH","REF_FRAME":"TEME","TIME_SYSTEM":"UTC","MEAN_ELEMENT_THEORY":"SGP4","EPOCH":"2021-05-12T06:59:46.210848","MEAN_MOTION":15.06399548,"ECCENTRICITY":0.0001411,"INCLINATION":53.0567,"RA_OF_ASC_NODE":98.3269,"ARG_OF_PERICENTER":75.0338,"MEAN_ANOMALY":285.0807,"EPHEMERIS_TYPE":0,"CLASSIFICATION_TYPE":"U","NORAD_CAT_ID":45535,"ELEMENT_SET_NO":999,"REV_AT_EPOCH":5887,"BSTAR":0.000038755,"MEAN_MOTION_DOT":0.00000296,"MEAN_MOTION_DDOT":0,"SEMIMAJOR_AXIS":6925.35,"PERIOD":95.592,"APOAPSIS":548.192,"PERIAPSIS":546.238,"OBJECT_TYPE":"PAYLOAD","RCS_SIZE":"LARGE","COUNTRY_CODE":"US","LAUNCH_DATE":"2020-04-22","SITE":"AFETR","DECAY_DATE":null,"DECAYED":0,"FILE":3035435,"GP_ID":177112399,"TLE_LINE0":"0 STARLINK-1350","TLE_LINE1":"1 45535U 20025E   21132.29150707  .00000296  00000-0  38755-4 0  9990","TLE_LINE2":"2 45535  53.0567  98.3269 0001411  75.0338 285.0807 15.06399548 58878"},"version":"v1.0","launch":"5eb87d44ffd86e000604b386","longitude":59.258247740930564,"latitude":50.92806847299739,"height_km":552.3923063957764,"velocity_kms":7.592233091238944,"id":"5eed7715096e59000698575d"},{"spaceTrack":{"CCSDS_OMM_VERS":"2.0","COMMENT":"GENERATED VIA SPACE-TRACK.ORG API","CREATION_DATE":"2021-05-12T07:56:10","ORIGINATOR":"18 SPCS","OBJECT_NAME":"STARLINK-1302","OBJECT_ID":"2020-019R","CENTER_NAME":"EARTH","REF_FRAME":"TEME","TIME_SYSTEM":"UTC","MEAN_ELEMENT_THEORY":"SGP4","EPOCH":"2021-05-12T06:30:35.181792","MEAN_MOTION":15.06399343,"ECCENTRICITY":0.0000202,"INCLINATION":53.056,"RA_OF_ASC_NODE":158.4244,"ARG_OF_PERICENTER":137.1799,"MEAN_ANOMALY":222.9206,"EPHEMERIS_TYPE":0,"CLASSIFICATION_TYPE":"U","NORAD_CAT_ID":45375,"ELEMENT_SET_NO":999,"REV_AT_EPOCH":6409,"BSTAR":0.000035422,"MEAN_MOTION_DOT":0.00000247,"MEAN_MOTION_DDOT":0,"SEMIMAJOR_AXIS":6925.351,"PERIOD":95.592,"APOAPSIS":547.355,"PERIAPSIS":547.076,"OBJECT_TYPE":"PAYLOAD","RCS_SIZE":"LARGE","COUNTRY_CODE":"US","LAUNCH_DATE":"2020-03-18","SITE":"AFETR","DECAY_DATE":null,"DECAYED":0,"FILE":3035376,"GP_ID":177111311,"TLE_LINE0":"0 STARLINK-1302","TLE_LINE1":"1 45375U 20019R   21132.27124053  .00000247  00000-0  35422-4 0  9992","TLE_LINE2":"2 45375  53.0560 158.4244 0000202 137.1799 222.9206 15.06399343 64099"},"version":"v1.0","launch":"5eb87d43ffd86e000604b385","longitude":-151.37008745776683,"latitude":-26.864977776332633,"height_km":555.1069236024459,"velocity_kms":7.584090313564775,"id":"5eed7715096e59000698575e"},{"spaceTrack":{"CCSDS_OMM_VERS":"2.0","COMMENT":"GENERATED VIA SPACE-TRACK.ORG API","CREATION_DATE":"2021-05-12T07:56:10","ORIGINATOR":"18 SPCS","OBJECT_NAME":"STARLINK-1296","OBJECT_ID":"2020-019BE","CENTER_NAME":"EARTH","REF_FRAME":"TEME","TIME_SYSTEM":"UTC","MEAN_ELEMENT_THEORY":"SGP4","EPOCH":"2021-05-12T06:34:35.450688","MEAN_MOTION":15.0639505,"ECCENTRICITY":0.000054,"INCLINATION":53.0566,"RA_OF_ASC_NODE":128.4037,"ARG_OF_PERICENTER":45.4824,"MEAN_ANOMALY":314.6209,"EPHEMERIS_TYPE":0,"CLASSIFICATION_TYPE":"U","NORAD_CAT_ID":45412,"ELEMENT_SET_NO":999,"REV_AT_EPOCH":6422,"BSTAR":0.000028032,"MEAN_MOTION_DOT":0.00000136,"MEAN_MOTION_DDOT":0,"SEMIMAJOR_AXIS":6925.364,"PERIOD":95.592,"APOAPSIS":547.603,"PERIAPSIS":546.855,"OBJECT_TYPE":"PAYLOAD","RCS_SIZE":"LARGE","COUNTRY_CODE":"US","LAUNCH_DATE":"2020-03-18","SITE":"AFETR","DECAY_DATE":null,"DECAYED":0,"FILE":3035375,"GP_ID":177111297,"TLE_LINE0":"0 STARLINK-1296","TLE_LINE1":"1 45412U 20019BE  21132.27402142  .00000136  00000-0  28032-4 0  9998","TLE_LINE2":"2 45412  53.0566 128.4037 0000540  45.4824 314.6209 15.06395050 64227"},"version":"v1.0","launch":"5eb87d43ffd86e000604b385","longitude":168.18073998511548,"latitude":-15.322177034127602,"height_km":551.6567793749937,"velocity_kms":7.586138998605324,"id":"5eed7715096e59000698575f"},{"spaceTrack":{"CCSDS_OMM_VERS":"2.0","COMMENT":"GENERATED VIA SPACE-TRACK.ORG API","CREATION_DATE":"2021-05-12T14:56:11","ORIGINATOR":"18 SPCS","OBJECT_NAME":"STARLINK-1276","OBJECT_ID":"2020-019J","CENTER_NAME":"EARTH","REF_FRAME":"TEME","TIME_SYSTEM":"UTC","MEAN_ELEMENT_THEORY":"SGP4","EPOCH":"2021-05-12T09:04:31.161216","MEAN_MOTION":15.06398143,"ECCENTRICITY":0.0000406,"INCLINATION":53.0568,"RA_OF_ASC_NODE":157.9418,"ARG_OF_PERICENTER":104.6783,"MEAN_ANOMALY":255.4251,"EPHEMERIS_TYPE":0,"CLASSIFICATION_TYPE":"U","NORAD_CAT_ID":45368,"ELEMENT_SET_NO":999,"REV_AT_EPOCH":6411,"BSTAR":0.000032915,"MEAN_MOTION_DOT":0.00000209,"MEAN_MOTION_DDOT":0,"SEMIMAJOR_AXIS":6925.354,"PERIOD":95.592,"APOAPSIS":547.5,"PERIAPSIS":546.938,"OBJECT_TYPE":"PAYLOAD","RCS_SIZE":"LARGE","COUNTRY_CODE":"US","LAUNCH_DATE":"2020-03-18","SITE":"AFETR","DECAY_DATE":null,"DECAYED":0,"FILE":3035609,"GP_ID":177116417,"TLE_LINE0":"0 STARLINK-1276","TLE_LINE1":"1 45368U 20019J   21132.37813844  .00000209  00000-0  32915-4 0  9990","TLE_LINE2":"2 45368  53.0568 157.9418 0000406 104.6783 255.4251 15.06398143 64115"},"version":"v1.0","launch":"5eb87d43ffd86e000604b385","longitude":2.7320570744230963,"latitude":-4.847082816317292,"height_km":548.9537330497333,"velocity_kms":7.588285102973049,"id":"5eed7715096e590006985760"},{"spaceTrack":{"CCSDS_OMM_VERS":"2.0","COMMENT":"GENERATED VIA SPACE-TRACK.ORG API","CREATION_DATE":"2021-05-12T07:56:10","ORIGINATOR":"18 SPCS","OBJECT_NAME":"STARLINK-1207","OBJECT_ID":"2020-019W","CENTER_NAME":"EARTH","REF_FRAME":"TEME","TIME_SYSTEM":"UTC","MEAN_ELEMENT_THEORY":"SGP4","EPOCH":"2021-05-12T05:45:26.949600","MEAN_MOTION":15.06420601,"ECCENTRICITY":0.0000858,"INCLINATION":53.0561,"RA_OF_ASC_NODE":138.5631,"ARG_OF_PERICENTER":62.6673,"MEAN_ANOMALY":297.4404,"EPHEMERIS_TYPE":0,"CLASSIFICATION_TYPE":"U","NORAD_CAT_ID":45380,"ELEMENT_SET_NO":999,"REV_AT_EPOCH":6437,"BSTAR":0.000071768,"MEAN_MOTION_DOT":0.00000788,"MEAN_MOTION_DDOT":0,"SEMIMAJOR_AXIS":6925.285,"PERIOD":95.591,"APOAPSIS":547.745,"PERIAPSIS":546.556,"OBJECT_TYPE":"PAYLOAD","RCS_SIZE":"LARGE","COUNTRY_CODE":"US","LAUNCH_DATE":"2020-03-18","SITE":"AFETR","DECAY_DATE":null,"DECAYED":0,"FILE":3035370,"GP_ID":177111510,"TLE_LINE0":"0 STARLINK-1207","TLE_LINE1":"1 45380U 20019W   21132.23989525  .00000788  00000-0  71768-4 0  9990","TLE_LINE2":"2 45380  53.0561 138.5631 0000858  62.6673 297.4404 15.06420601 64375"},"version":"v1.0","launch":"5eb87d43ffd86e000604b385","longitude":1.495001943300294,"latitude":19.24021617290714,"height_km":547.0878676198336,"velocity_kms":7.591604198022989,"id":"5eed7715096e590006985761"},{"spaceTrack":{"CCSDS_OMM_VERS":"2.0","COMMENT":"GENERATED VIA SPACE-TRACK.ORG API","CREATION_DATE":"2021-05-12T04:44:40","ORIGINATOR":"18 SPCS","OBJECT_NAME":"STARLINK-1280","OBJECT_ID":"2020-019AE","CENTER_NAME":"EARTH","REF_FRAME":"TEME","TIME_SYSTEM":"UTC","MEAN_ELEMENT_THEORY":"SGP4","EPOCH":"2021-05-11T13:31:30.053856","MEAN_MOTION":15.0639916,"ECCENTRICITY":0.0000378,"INCLINATION":53.0577,"RA_OF_ASC_NODE":161.6038,"ARG_OF_PERICENTER":114.0492,"MEAN_ANOMALY":246.0537,"EPHEMERIS_TYPE":0,"CLASSIFICATION_TYPE":"U","NORAD_CAT_ID":45388,"ELEMENT_SET_NO":999,"REV_AT_EPOCH":6397,"BSTAR":0.00004925,"MEAN_MOTION_DOT":0.00000453,"MEAN_MOTION_DDOT":0,"SEMIMAJOR_AXIS":6925.351,"PERIOD":95.592,"APOAPSIS":547.478,"PERIAPSIS":546.954,"OBJECT_TYPE":"PAYLOAD","RCS_SIZE":"LARGE","COUNTRY_CODE":"US","LAUNCH_DATE":"2020-03-18","SITE":"AFETR","DECAY_DATE":null,"DECAYED":0,"FILE":3035157,"GP_ID":177104010,"TLE_LINE0":"0 STARLINK-1280","TLE_LINE1":"1 45388U 20019AE  21131.56354229  .00000453  00000-0  49250-4 0  9990","TLE_LINE2":"2 45388  53.0577 161.6038 0000378 114.0492 246.0537 15.06399160 63973"},"version":"v1.0","launch":"5eb87d43ffd86e000604b385","longitude":103.30158553310373,"latitude":53.00679177171123,"height_km":553.4891771857683,"velocity_kms":7.591486323112868,"id":"5eed7715096e590006985762"},{"spaceTrack":{"CCSDS_OMM_VERS":"2.0","COMMENT":"GENERATED VIA SPACE-TRACK.ORG API","CREATION_DATE":"2021-05-12T14:56:11","ORIGINATOR":"18 SPCS","OBJECT_NAME":"STARLINK-1288","OBJECT_ID":"2020-019N","CENTER_NAME":"EARTH","REF_FRAME":"TEME","TIME_SYSTEM":"UTC","MEAN_ELEMENT_THEORY":"SGP4","EPOCH":"2021-05-12T09:52:18.333984","MEAN_MOTION":15.06390921,"ECCENTRICITY":0.0000352,"INCLINATION":53.0575,"RA_OF_ASC_NODE":157.7977,"ARG_OF_PERICENTER":98.1093,"MEAN_ANOMALY":261.9936,"EPHEMERIS_TYPE":0,"CLASSIFICATION_TYPE":"U","NORAD_CAT_ID":45372,"ELEMENT_SET_NO":999,"REV_AT_EPOCH":6411,"BSTAR":0.000086519,"MEAN_MOTION_DOT":0.00001008,"MEAN_MOTION_DDOT":0,"SEMIMAJOR_AXIS":6925.376,"PERIOD":95.593,"APOAPSIS":547.485,"PERIAPSIS":546.998,"OBJECT_TYPE":"PAYLOAD","RCS_SIZE":"LARGE","COUNTRY_CODE":"US","LAUNCH_DATE":"2020-03-18","SITE":"AFETR","DECAY_DATE":null,"DECAYED":0,"FILE":3035610,"GP_ID":177116125,"TLE_LINE0":"0 STARLINK-1288","TLE_LINE1":"1 45372U 20019N   21132.41132331  .00001008  00000-0  86519-4 0  9992","TLE_LINE2":"2 45372  53.0575 157.7977 0000352  98.1093 261.9936 15.06390921 64115"},"version":"v1.0","launch":"5eb87d43ffd86e000604b385","longitude":-177.18322261071384,"latitude":4.741578460875094,"height_km":547.5611679428739,"velocity_kms":7.5898186649732,"id":"5eed7715096e590006985763"}]